[{"OBJECT_NAME":"STARLINK-36280","OBJECT_ID":"2025-304V","EPOCH":"2026-03-02T19:10:10.139808","MEAN_MOTION":14.9833229,"ECCENTRICITY":0.00032851,"INCLINATION":70.0023,"RA_OF_ASC_NODE":191.7842,"ARG_OF_PERICENTER":270.6294,"MEAN_ANOMALY":89.4488,"EPHEMERIS_TYPE":0,"CLASSIFICATION_TYPE":"U","NORAD_CAT_ID":67211,"ELEMENT_SET_NO":999,"REV_AT_EPOCH":1285,"BSTAR":-0.00018753306,"MEAN_MOTION_DOT":-2.33e-5,"MEAN_MOTION_DDOT":0},{"OBJECT_NAME":"STARLINK-36213","OBJECT_ID":"2025-304W","EPOCH":"2026-03-02T18:58:08.712768","MEAN_MOTION":14.98519318,"ECCENTRICITY":0.00025141,"INCLINATION":70.0019,"RA_OF_ASC_NODE":191.7513,"ARG_OF_PERICENTER":289.2644,"MEAN_ANOMALY":70.8243,"EPHEMERIS_TYPE":0,"CLASSIFICATION_TYPE":"U","NORAD_CAT_ID":67212,"ELEMENT_SET_NO":999,"REV_AT_EPOCH":1285,"BSTAR":-0.015610575,"MEAN_MOTION_DOT":-0.00182477,"MEAN_MOTION_DDOT":0},{"OBJECT_NAME":"STARLINK-36199","OBJECT_ID":"2025-304X","EPOCH":"2026-03-02T18:40:07.446144","MEAN_MOTION":14.98335421,"ECCENTRICITY":0.00034207,"INCLINATION":70.0028,"RA_OF_ASC_NODE":191.7064,"ARG_OF_PERICENTER":269.133,"MEAN_ANOMALY":90.9437,"EPHEMERIS_TYPE":0,"CLASSIFICATION_TYPE":"U","NORAD_CAT_ID":67213,"ELEMENT_SET_NO":999,"REV_AT_EPOCH":1285,"BSTAR":0.00024655057,"MEAN_MOTION_DOT":2.85e-5,"MEAN_MOTION_DDOT":0},{"OBJECT_NAME":"STARLINK-36203","OBJECT_ID":"2025-304Y","EPOCH":"2026-03-02T18:28:21.491616","MEAN_MOTION":14.98340791,"ECCENTRICITY":0.0004199,"INCLINATION":70.0019,"RA_OF_ASC_NODE":192.0789,"ARG_OF_PERICENTER":271.3473,"MEAN_ANOMALY":88.7205,"EPHEMERIS_TYPE":0,"CLASSIFICATION_TYPE":"U","NORAD_CAT_ID":67214,"ELEMENT_SET_NO":999,"REV_AT_EPOCH":1284,"BSTAR":-0.00014687481,"MEAN_MOTION_DOT":-1.846e-5,"MEAN_MOTION_DDOT":0},{"OBJECT_NAME":"STARLINK-36221","OBJECT_ID":"2025-304Z","EPOCH":"2026-03-02T18:16:21.418464","MEAN_MOTION":14.98333311,"ECCENTRICITY":0.00043022,"INCLINATION":70.0023,"RA_OF_ASC_NODE":192.0484,"ARG_OF_PERICENTER":265.0164,"MEAN_ANOMALY":95.0504,"EPHEMERIS_TYPE":0,"CLASSIFICATION_TYPE":"U","NORAD_CAT_ID":67215,"ELEMENT_SET_NO":999,"REV_AT_EPOCH":1284,"BSTAR":0.00031057694,"MEAN_MOTION_DOT":3.615e-5,"MEAN_MOTION_DDOT":0},{"OBJECT_NAME":"STARLINK-36212","OBJECT_ID":"2025-304AA","EPOCH":"2026-03-03T00:28:34.949280","MEAN_MOTION":14.98881118,"ECCENTRICITY":0.000457,"INCLINATION":70.0018,"RA_OF_ASC_NODE":191.3446,"ARG_OF_PERICENTER":289.0351,"MEAN_ANOMALY":71.0313,"EPHEMERIS_TYPE":0,"CLASSIFICATION_TYPE":"U","NORAD_CAT_ID":67216,"ELEMENT_SET_NO":999,"REV_AT_EPOCH":1288,"BSTAR":0.017982,"MEAN_MOTION_DOT":0.00224683,"MEAN_MOTION_DDOT":0},{"OBJECT_NAME":"STARLINK-36216","OBJECT_ID":"2025-304AB","EPOCH":"2026-03-02T19:29:32.858304","MEAN_MOTION":14.99146841,"ECCENTRICITY":0.00033207,"INCLINATION":70.0024,"RA_OF_ASC_NODE":191.8256,"ARG_OF_PERICENTER":266.5418,"MEAN_ANOMALY":93.5361,"EPHEMERIS_TYPE":0,"CLASSIFICATION_TYPE":"U","NORAD_CAT_ID":67217,"ELEMENT_SET_NO":999,"REV_AT_EPOCH":1284,"BSTAR":0.00026743208,"MEAN_MOTION_DOT":3.167e-5,"MEAN_MOTION_DDOT":0},{"OBJECT_NAME":"STARLINK-36211","OBJECT_ID":"2025-304AC","EPOCH":"2026-03-03T04:00:01.999584","MEAN_MOTION":14.98314854,"ECCENTRICITY":0.0003239,"INCLINATION":70.0016,"RA_OF_ASC_NODE":190.8749,"ARG_OF_PERICENTER":292.3345,"MEAN_ANOMALY":228.4417,"EPHEMERIS_TYPE":0,"CLASSIFICATION_TYPE":"U","NORAD_CAT_ID":67218,"ELEMENT_SET_NO":999,"REV_AT_EPOCH":588,"BSTAR":0.0049546,"MEAN_MOTION_DOT":0.00059507,"MEAN_MOTION_DDOT":0},{"OBJECT_NAME":"STARLINK-36490","OBJECT_ID":"2026-002A","EPOCH":"2026-03-03T03:50:10.358304","MEAN_MOTION":15.27600975,"ECCENTRICITY":0.0002896,"INCLINATION":43.0053,"RA_OF_ASC_NODE":1.8507,"ARG_OF_PERICENTER":250.3763,"MEAN_ANOMALY":109.6777,"EPHEMERIS_TYPE":0,"CLASSIFICATION_TYPE":"U","NORAD_CAT_ID":67305,"ELEMENT_SET_NO":999,"REV_AT_EPOCH":1014,"BSTAR":0.0011132,"MEAN_MOTION_DOT":0.0003052,"MEAN_MOTION_DDOT":0},{"OBJECT_NAME":"STARLINK-36488","OBJECT_ID":"2026-002B","EPOCH":"2026-03-02T21:02:18.410208","MEAN_MOTION":15.27582575,"ECCENTRICITY":0.0001327,"INCLINATION":43.0023,"RA_OF_ASC_NODE":4.0309,"ARG_OF_PERICENTER":253.5304,"MEAN_ANOMALY":106.5402,"EPHEMERIS_TYPE":0,"CLASSIFICATION_TYPE":"U","NORAD_CAT_ID":67306,"ELEMENT_SET_NO":999,"REV_AT_EPOCH":1003,"BSTAR":0.00028534,"MEAN_MOTION_DOT":7.598e-5,"MEAN_MOTION_DDOT":0},{"OBJECT_NAME":"STARLINK-36481","OBJECT_ID":"2026-002C","EPOCH":"2026-03-03T04:32:44.301696","MEAN_MOTION":15.27593523,"ECCENTRICITY":0.0001601,"INCLINATION":43.001,"RA_OF_ASC_NODE":2.0711,"ARG_OF_PERICENTER":261.5588,"MEAN_ANOMALY":98.5082,"EPHEMERIS_TYPE":0,"CLASSIFICATION_TYPE":"U","NORAD_CAT_ID":67307,"ELEMENT_SET_NO":999,"REV_AT_EPOCH":1008,"BSTAR":0.00092159,"MEAN_MOTION_DOT":0.00025195,"MEAN_MOTION_DDOT":0},{"OBJECT_NAME":"STARLINK-36449","OBJECT_ID":"2026-002D","EPOCH":"2026-03-03T04:21:38.333952","MEAN_MOTION":15.27595343,"ECCENTRICITY":0.000109,"INCLINATION":43.0006,"RA_OF_ASC_NODE":2.0145,"ARG_OF_PERICENTER":277.069,"MEAN_ANOMALY":83.0038,"EPHEMERIS_TYPE":0,"CLASSIFICATION_TYPE":"U","NORAD_CAT_ID":67308,"ELEMENT_SET_NO":999,"REV_AT_EPOCH":1014,"BSTAR":0.0010349,"MEAN_MOTION_DOT":0.0002834,"MEAN_MOTION_DDOT":0},{"OBJECT_NAME":"STARLINK-36482","OBJECT_ID":"2026-002E","EPOCH":"2026-03-03T04:16:05.336256","MEAN_MOTION":15.27588223,"ECCENTRICITY":8.68e-5,"INCLINATION":43.0005,"RA_OF_ASC_NODE":1.9865,"ARG_OF_PERICENTER":243.7567,"MEAN_ANOMALY":116.3195,"EPHEMERIS_TYPE":0,"CLASSIFICATION_TYPE":"U","NORAD_CAT_ID":67309,"ELEMENT_SET_NO":999,"REV_AT_EPOCH":1008,"BSTAR":0.00092393,"MEAN_MOTION_DOT":0.00025256,"MEAN_MOTION_DDOT":0},{"OBJECT_NAME":"STARLINK-36491","OBJECT_ID":"2026-002F","EPOCH":"2026-03-02T22:30:54.341280","MEAN_MOTION":15.27553988,"ECCENTRICITY":0.0002421,"INCLINATION":43.0008,"RA_OF_ASC_NODE":3.6301,"ARG_OF_PERICENTER":280.7676,"MEAN_ANOMALY":79.2903,"EPHEMERIS_TYPE":0,"CLASSIFICATION_TYPE":"U","NORAD_CAT_ID":67310,"ELEMENT_SET_NO":999,"REV_AT_EPOCH":1004,"BSTAR":-0.00032942,"MEAN_MOTION_DOT":-9.31e-5,"MEAN_MOTION_DDOT":0},{"OBJECT_NAME":"STARLINK-36495","OBJECT_ID":"2026-002G","EPOCH":"2026-03-03T04:01:15.447360","MEAN_MOTION":15.27609104,"ECCENTRICITY":0.0005802,"INCLINATION":43.0034,"RA_OF_ASC_NODE":1.9071,"ARG_OF_PERICENTER":236.5143,"MEAN_ANOMALY":123.5154,"EPHEMERIS_TYPE":0,"CLASSIFICATION_TYPE":"U","NORAD_CAT_ID":67311,"ELEMENT_SET_NO":999,"REV_AT_EPOCH":1024,"BSTAR":0.0013491,"MEAN_MOTION_DOT":0.00037096,"MEAN_MOTION_DDOT":0},{"OBJECT_NAME":"STARLINK-36485","OBJECT_ID":"2026-002H","EPOCH":"2026-03-03T03:40:55.216704","MEAN_MOTION":15.27610105,"ECCENTRICITY":0.0002226,"INCLINATION":43.006,"RA_OF_ASC_NODE":1.7996,"ARG_OF_PERICENTER":242.4537,"MEAN_ANOMALY":117.6089,"EPHEMERIS_TYPE":0,"CLASSIFICATION_TYPE":"U","NORAD_CAT_ID":67312,"ELEMENT_SET_NO":999,"REV_AT_EPOCH":1008,"BSTAR":0.0012574,"MEAN_MOTION_DOT":0.00034535,"MEAN_MOTION_DDOT":0}]
