STARLINK-36280          
1 67211U 25304V   26061.79872847 -.00002330  00000+0 -18753-3 0  9994
2 67211  70.0023 191.7842 0003285 270.6294  89.4488 14.98332290 12859
STARLINK-36213          
1 67212U 25304W   26061.79037862 -.00182477  00000+0 -15611-1 0  9994
2 67212  70.0019 191.7513 0002514 289.2644  70.8243 14.98519318 12850
STARLINK-36199          
1 67213U 25304X   26061.77786396  .00002850  00000+0  24655-3 0  9990
2 67213  70.0028 191.7064 0003420 269.1330  90.9437 14.98335421 12857
STARLINK-36203          
1 67214U 25304Y   26061.76969319 -.00001846  00000+0 -14687-3 0  9998
2 67214  70.0019 192.0789 0004199 271.3473  88.7205 14.98340791 12846
STARLINK-36221          
1 67215U 25304Z   26061.76135901  .00003615  00000+0  31058-3 0  9996
2 67215  70.0023 192.0484 0004302 265.0164  95.0504 14.98333311 12840
STARLINK-36212          
1 67216U 25304AA  26062.01984895  .00224683  00000+0  17982-1 0  9998
2 67216  70.0018 191.3446 0004570 289.0351  71.0313 14.98881118 12885
STARLINK-36216          
1 67217U 25304AB  26061.81218586  .00003167  00000+0  26743-3 0  9992
2 67217  70.0024 191.8256 0003320 266.5418  93.5361 14.99146841 12849
STARLINK-36211          
1 67218U 25304AC  26062.16668981  .00059507  00000+0  49546-2 0  9994
2 67218  70.0016 190.8749 0003239 292.3345 228.4417 14.98314854  5889
STARLINK-36490          
1 67305U 26002A   26062.15984211  .00030520  00000+0  11132-2 0  9997
2 67305  43.0053   1.8507 0002896 250.3763 109.6777 15.27600975 10145
STARLINK-36488          
1 67306U 26002B   26061.87660197  .00007598  00000+0  28534-3 0  9994
2 67306  43.0023   4.0309 0001327 253.5304 106.5402 15.27582575 10036
STARLINK-36481          
1 67307U 26002C   26062.18940164  .00025195  00000+0  92159-3 0  9992
2 67307  43.0010   2.0711 0001601 261.5588  98.5082 15.27593523 10080
STARLINK-36449          
1 67308U 26002D   26062.18169368  .00028340  00000+0  10349-2 0  9997
2 67308  43.0006   2.0145 0001090 277.0690  83.0038 15.27595343 10144
STARLINK-36482          
1 67309U 26002E   26062.17783954  .00025256  00000+0  92393-3 0  9993
2 67309  43.0005   1.9865 0000868 243.7567 116.3195 15.27588223 10082
STARLINK-36491          
1 67310U 26002F   26061.93812895 -.00009310  00000+0 -32942-3 0  9994
2 67310  43.0008   3.6301 0002421 280.7676  79.2903 15.27553988 10040
STARLINK-36495          
1 67311U 26002G   26062.16753990  .00037096  00000+0  13491-2 0  9998
2 67311  43.0034   1.9071 0005802 236.5143 123.5154 15.27609104 10244
STARLINK-36485          
1 67312U 26002H   26062.15341686  .00034535  00000+0  12574-2 0  9999
2 67312  43.0060   1.7996 0002226 242.4537 117.6089 15.27610105 10084
